NORAD_CAT_ID,OBJECT_NAME,OBJECT_TYPE,EPOCH,MEAN_MOTION,ECCENTRICITY,INCLINATION,RA_OF_ASC_NODE,ARG_OF_PERICENTER,MEAN_ANOMALY,BSTAR,MEAN_MOTION_DOT,MEAN_MOTION_DDOT,TLE_LINE0,TLE_LINE1,TLE_LINE2,SEMIMAJOR_AXIS,PERIOD,APOGEE,PERIGEE,DECAYED
55924.0,STARLINK-5849,PAYLOAD,2024-01-16 12:18:44,14.98329418,0.0002524,70.0005,99.298,259.3677,100.7198,-0.00020649,-2.556e-05,0.0,0 STARLINK-5849,1 55924U 23037L   24016.51301026 -.00002556  00000-0 -20649-3 0  9995,2 55924  70.0005  99.2980 0002524 259.3677 100.7198 14.98329418 47004,6950.195,96.107,573.814,570.305,0.0
55924.0,STARLINK-5849,PAYLOAD,2024-01-16 13:54:52,14.98324752,0.0002781,70.0006,99.1299,264.9024,95.1818,-6.4899e-05,-8.67e-06,0.0,0 STARLINK-5849,1 55924U 23037L   24016.57976943 -.00000867  00000-0 -64899-4 0  9996,2 55924  70.0006  99.1299 0002781 264.9024  95.1818 14.98324752 46674,6950.209,96.107,574.007,570.141,0.0
55924.0,STARLINK-5849,PAYLOAD,2024-01-16 15:31:00,14.98326662,0.0002703,70.0005,98.9614,263.5477,96.5374,-6.5908e-05,-8.79e-06,0.0,0 STARLINK-5849,1 55924U 23037L   24016.64652848 -.00000879  00000-0 -65908-4 0  9994,2 55924  70.0005  98.9614 0002703 263.5477  96.5374 14.98326662 46687,6950.203,96.107,573.947,570.19,0.0
55924.0,STARLINK-5849,PAYLOAD,2024-01-17 12:20:44,14.98334256,0.0002761,70.0002,96.7721,258.8005,101.2844,-2.3047e-05,-3.68e-06,0.0,0 STARLINK-5849,1 55924U 23037L   24017.51440196 -.00000368  00000-0 -23047-4 0  9993,2 55924  70.0002  96.7721 0002761 258.8005 101.2844 14.98334256 47154,6950.18,96.107,573.964,570.126,0.0
55924.0,STARLINK-5849,PAYLOAD,2024-01-17 13:56:52,14.98335453,0.0002742,70.0003,96.6039,258.5089,101.5762,-9.0651e-06,-2.01e-06,0.0,0 STARLINK-5849,1 55924U 23037L   24017.58116061 -.00000201  00000-0 -90651-5 0  9993,2 55924  70.0003  96.6039 0002742 258.5089 101.5762 14.98335453 46829,6950.176,96.107,573.947,570.135,0.0
55924.0,STARLINK-5849,PAYLOAD,2024-01-17 15:33:00,14.98335414,0.000275,70.0002,96.4356,259.3107,100.7743,-7.4909e-06,-1.82e-06,0.0,0 STARLINK-5849,1 55924U 23037L   24017.64792044 -.00000182  00000-0 -74909-5 0  9997,2 55924  70.0002  96.4356 0002750 259.3107 100.7743 14.98335414 46835,6950.176,96.107,573.952,570.13,0.0
55924.0,STARLINK-5849,PAYLOAD,2024-01-18 04:22:05,14.98323351,0.0002842,70.0008,95.0886,266.7581,93.3253,8.688e-05,9.44e-06,0.0,0 STARLINK-5849,1 55924U 23037L   24018.18200594  .00000944  00000-0  86880-4 0  9995,2 55924  70.0008  95.0886 0002842 266.7581  93.3253 14.98323351 47251,6950.213,96.107,574.054,570.103,0.0
55924.0,STARLINK-5849,PAYLOAD,2024-01-18 13:58:53,14.98345947,0.0002587,70.0007,94.0777,264.2678,95.8186,-0.00036556,-4.454e-05,0.0,0 STARLINK-5849,1 55924U 23037L   24018.58256383 -.00004454  00000-0 -36556-3 0  9992,2 55924  70.0007  94.0777 0002587 264.2678  95.8186 14.98345947 46979,6950.144,96.106,573.807,570.211,0.0
55924.0,STARLINK-5849,PAYLOAD,2024-01-19 14:00:54,14.98336903,0.0002581,70.0004,91.553,260.9773,99.1094,4.0146e-05,3.86e-06,0.0,0 STARLINK-5849,1 55924U 23037L   24019.58395895  .00000386  00000-0  40146-4 0  9994,2 55924  70.0004  91.5530 0002581 260.9773  99.1094 14.98336903 47123,6950.172,96.107,573.83,570.243,0.0
55924.0,STARLINK-5849,PAYLOAD,2024-01-20 04:26:06,14.98328255,0.0002536,70.0004,90.0379,260.1099,99.9773,3.6449e-05,3.42e-06,0.0,0 STARLINK-5849,1 55924U 23037L   24020.18480305  .00000342  00000-0  36449-4 0  9996,2 55924  70.0004  90.0379 0002536 260.1099  99.9773 14.98328255 47551,6950.198,96.107,573.826,570.301,0.0
55924.0,STARLINK-5849,PAYLOAD,2024-01-20 14:02:55,14.98325975,0.0002606,70.0002,89.0279,259.0655,101.021,2.1414e-06,-6.7e-07,0.0,0 STARLINK-5849,1 55924U 23037L   24020.58536579 -.00000067  00000-0  21414-5 0  9997,2 55924  70.0002  89.0279 0002606 259.0655 101.0210 14.98325975 47275,6950.205,96.107,573.882,570.259,0.0
55924.0,STARLINK-5849,PAYLOAD,2024-01-21 06:04:15,14.98333223,0.0002628,70.0001,87.3445,257.3773,102.7092,-3.6405e-05,-5.27e-06,0.0,0 STARLINK-5849,1 55924U 23037L   24021.25296187 -.00000527  00000-0 -36405-4 0  9997,2 55924  70.0001  87.3445 0002628 257.3773 102.7092 14.98333223 47378,6950.183,96.107,573.874,570.221,0.0
55924.0,STARLINK-5849,PAYLOAD,2024-01-21 12:28:48,14.98332473,0.0002644,70.0002,86.6715,258.6178,101.4684,-4.0581e-05,-5.77e-06,0.0,0 STARLINK-5849,1 55924U 23037L   24021.52000202 -.00000577  00000-0 -40581-4 0  9993,2 55924  70.0002  86.6715 0002644 258.6178 101.4684 14.98332473 47753,6950.185,96.107,573.888,570.213,0.0
55924.0,STARLINK-5849,PAYLOAD,2024-01-21 14:04:56,14.98333329,0.0002713,70.0,86.503,263.6684,96.4166,-3.6105e-05,-5.24e-06,0.0,0 STARLINK-5849,1 55924U 23037L   24021.58676139 -.00000524  00000-0 -36105-4 0  9996,2 55924  70.0000  86.5030 0002713 263.6684  96.4166 14.98333329 47428,6950.183,96.107,573.933,570.162,0.0
55924.0,STARLINK-5849,PAYLOAD,2024-01-22 06:06:16,14.98327864,0.0002766,70.0,84.8202,262.5761,97.5084,2.2008e-05,1.7e-06,0.0,0 STARLINK-5849,1 55924U 23037L   24022.25436246  .00000170  00000-0  22008-4 0  9996,2 55924  70.0000  84.8202 0002766 262.5761  97.5084 14.98327864 47521,6950.199,96.107,573.987,570.142,0.0
55924.0,STARLINK-5849,PAYLOAD,2024-01-22 14:06:57,14.98329348,0.0002734,70.0,83.9787,261.8784,98.2065,3.7612e-05,3.56e-06,0.0,0 STARLINK-5849,1 55924U 23037L   24022.58816132  .00000356  00000-0  37612-4 0  9991,2 55924  70.0000  83.9787 0002734 261.8784  98.2065 14.98329348 47910,6950.195,96.107,573.96,570.16,0.0
55924.0,STARLINK-5849,PAYLOAD,2024-01-23 06:08:17,14.98332674,0.0002752,69.9999,82.2952,263.3439,96.7407,1.8724e-05,1.3e-06,0.0,0 STARLINK-5849,1 55924U 23037L   24023.25575917  .00000130  00000-0  18724-4 0  9992,2 55924  69.9999  82.2952 0002752 263.3439  96.7407 14.98332674 47676,6950.185,96.107,573.962,570.137,0.0
55924.0,STARLINK-5849,PAYLOAD,2024-01-23 14:08:57,14.98333439,0.0002743,69.9999,81.4536,263.0013,97.0834,2.6945e-05,2.29e-06,0.0,0 STARLINK-5849,1 55924U 23037L   24023.58955783  .00000229  00000-0  26945-4 0  9994,2 55924  69.9999  81.4536 0002743 263.0013  97.0834 14.98333439 48062,6950.182,96.107,573.954,570.141,0.0
55924.0,STARLINK-5849,PAYLOAD,2024-01-24 10:58:43,14.98325921,0.000262,70.0002,79.2656,258.0124,102.0742,-3.5095e-05,-5.12e-06,0.0,0 STARLINK-5849,1 55924U 23037L   24024.45744456 -.00000512  00000-0 -35095-4 0  9997,2 55924  70.0002  79.2656 0002620 258.0124 102.0742 14.98325921 48195,6950.206,96.107,573.891,570.25,0.0
55924.0,STARLINK-5849,PAYLOAD,2024-01-24 12:34:51,14.98325477,0.0002628,70.0001,79.0971,261.0355,99.0506,-4.1128e-05,-5.84e-06,0.0,0 STARLINK-5849,1 55924U 23037L   24024.52420533 -.00000584  00000-0 -41128-4 0  9995,2 55924  70.0001  79.0971 0002628 261.0355  99.0506 14.98325477 47862,6950.207,96.107,573.898,570.245,0.0
55924.0,STARLINK-5849,PAYLOAD,2024-01-25 11:00:43,14.98332309,0.0002654,70.0001,76.7412,259.613,100.473,4.7192e-06,-3.7e-07,0.0,0 STARLINK-5849,1 55924U 23037L   24025.45883914 -.00000037  00000-0  47192-5 0  9994,2 55924  70.0001  76.7412 0002654 259.6130 100.4730 14.98332309 48341,6950.186,96.107,573.895,570.206,0.0
55924.0,STARLINK-5849,PAYLOAD,2024-01-25 12:36:51,14.98331964,0.0002659,70.0001,76.5727,260.3255,99.7604,6.4154e-07,-8.5e-07,0.0,0 STARLINK-5849,1 55924U 23037L   24025.52559940 -.00000085  00000-0  64154-6 0  9992,2 55924  70.0001  76.5727 0002659 260.3255  99.7604 14.98331964 48010,6950.187,96.107,573.9,570.204,0.0
55924.0,STARLINK-5849,PAYLOAD,2024-01-26 11:02:44,14.98327814,0.0002781,69.9996,74.2148,263.1313,96.953,2.6455e-05,2.23e-06,0.0,0 STARLINK-5849,1 55924U 23037L   24026.46024118  .00000223  00000-0  26455-4 0  9993,2 55924  69.9996  74.2148 0002781 263.1313  96.9530 14.98327814 48492,6950.2,96.107,573.998,570.132,0.0
55924.0,STARLINK-5849,PAYLOAD,2024-01-26 12:38:52,14.98329049,0.0002764,69.9995,74.0463,262.1842,97.9003,4.1561e-05,4.03e-06,0.0,0 STARLINK-5849,1 55924U 23037L   24026.52699988  .00000403  00000-0  41561-4 0  9998,2 55924  69.9995  74.0463 0002764 262.1842  97.9003 14.98329049 48168,6950.196,96.107,573.982,570.14,0.0
55924.0,STARLINK-5849,PAYLOAD,2024-01-27 12:40:53,14.98330661,0.0002745,69.9995,71.5209,261.6501,98.4347,-1.1171e-05,-2.26e-06,0.0,0 STARLINK-5849,1 55924U 23037L   24027.52839986 -.00000226  00000-0 -11171-4 0  9992,2 55924  69.9995  71.5209 0002745 261.6501  98.4347 14.98330661 48656,6950.191,96.107,573.964,570.148,0.0
55924.0,STARLINK-5849,PAYLOAD,2024-01-28 12:42:54,14.98327611,0.0002798,69.9994,68.9956,265.1306,94.9534,-2.993e-05,-4.5e-06,0.0,0 STARLINK-5849,1 55924U 23037L   24028.52980236 -.00000450  00000-0 -29930-4 0  9999,2 55924  69.9994  68.9956 0002798 265.1306  94.9534 14.98327611 48463,6950.2,96.107,574.01,570.121,0.0
55924.0,STARLINK-5849,PAYLOAD,2024-01-29 11:08:47,14.9833439,0.000287,69.9993,66.6384,269.186,90.897,4.1881e-05,4.07e-06,0.0,0 STARLINK-5849,1 55924U 23037L   24029.46443548  .00000407  00000-0  41881-4 0  9992,2 55924  69.9993  66.6384 0002870 269.1860  90.8970 14.98334390 48946,6950.179,96.107,574.039,570.05,0.0
55924.0,STARLINK-5849,PAYLOAD,2024-01-29 12:44:55,14.98334833,0.0002866,69.9993,66.47,268.9739,91.1092,4.5886e-05,4.55e-06,0.0,0 STARLINK-5849,1 55924U 23037L   24029.53119488  .00000455  00000-0  45886-4 0  9995,2 55924  69.9993  66.4700 0002866 268.9739  91.1092 14.98334833 48618,6950.178,96.107,574.035,570.051,0.0
55924.0,STARLINK-5849,PAYLOAD,2024-01-30 04:46:16,14.98326941,0.0002738,69.9996,64.7867,270.4182,89.6663,2.1106e-05,1.59e-06,0.0,0 STARLINK-5849,1 55924U 23037L   24030.19880019  .00000159  00000-0  21106-4 0  9994,2 55924  69.9996  64.7867 0002738 270.4182  89.6663 14.98326941 49050,6950.202,96.107,573.97,570.164,0.0
55924.0,STARLINK-5849,PAYLOAD,2024-01-30 11:10:48,14.98326135,0.0002755,69.9995,64.1133,269.8958,90.1885,8.2753e-06,6e-08,0.0,0 STARLINK-5849,1 55924U 23037L   24030.46584142  .00000006  00000-0  82753-5 0  9999,2 55924  69.9995  64.1133 0002755 269.8958  90.1885 14.98326135 48755,6950.205,96.107,573.985,570.155,0.0
